[{"OBJECT_NAME":"STARLINK-37170","OBJECT_ID":"2026-073N","EPOCH":"2026-04-22T11:54:21.044160","MEAN_MOTION":15.80930412,"ECCENTRICITY":0.00020567,"INCLINATION":97.2838,"RA_OF_ASC_NODE":310.4479,"ARG_OF_PERICENTER":127.5452,"MEAN_ANOMALY":232.6003,"EPHEMERIS_TYPE":0,"CLASSIFICATION_TYPE":"U","NORAD_CAT_ID":68614,"ELEMENT_SET_NO":999,"REV_AT_EPOCH":245,"BSTAR":0.0012534804,"MEAN_MOTION_DOT":0.00248214,"MEAN_MOTION_DDOT":0},{"OBJECT_NAME":"STARLINK-37176","OBJECT_ID":"2026-073P","EPOCH":"2026-04-21T22:12:53.867808","MEAN_MOTION":15.80952281,"ECCENTRICITY":9.63e-5,"INCLINATION":97.2844,"RA_OF_ASC_NODE":309.8457,"ARG_OF_PERICENTER":35.0659,"MEAN_ANOMALY":325.0673,"EPHEMERIS_TYPE":0,"CLASSIFICATION_TYPE":"U","NORAD_CAT_ID":68615,"ELEMENT_SET_NO":999,"REV_AT_EPOCH":236,"BSTAR":0.0022622,"MEAN_MOTION_DOT":0.00459688,"MEAN_MOTION_DDOT":0},{"OBJECT_NAME":"STARLINK-37152","OBJECT_ID":"2026-073Q","EPOCH":"2026-04-23T06:00:02.000160","MEAN_MOTION":15.75228002,"ECCENTRICITY":0.00015637,"INCLINATION":97.2843,"RA_OF_ASC_NODE":311.2315,"ARG_OF_PERICENTER":95.2549,"MEAN_ANOMALY":196.062,"EPHEMERIS_TYPE":0,"CLASSIFICATION_TYPE":"U","NORAD_CAT_ID":68616,"ELEMENT_SET_NO":999,"REV_AT_EPOCH":287,"BSTAR":-0.00063445766,"MEAN_MOTION_DOT":-0.00093888,"MEAN_MOTION_DDOT":0},{"OBJECT_NAME":"STARLINK-37186","OBJECT_ID":"2026-073R","EPOCH":"2026-04-22T14:53:24.943776","MEAN_MOTION":15.80894803,"ECCENTRICITY":8.072e-5,"INCLINATION":97.2841,"RA_OF_ASC_NODE":310.5837,"ARG_OF_PERICENTER":89.9962,"MEAN_ANOMALY":270.1398,"EPHEMERIS_TYPE":0,"CLASSIFICATION_TYPE":"U","NORAD_CAT_ID":68617,"ELEMENT_SET_NO":999,"REV_AT_EPOCH":247,"BSTAR":0.00059469884,"MEAN_MOTION_DOT":0.00115707,"MEAN_MOTION_DDOT":0},{"OBJECT_NAME":"STARLINK-37179","OBJECT_ID":"2026-073S","EPOCH":"2026-04-22T14:52:20.121312","MEAN_MOTION":15.80862812,"ECCENTRICITY":8.235e-5,"INCLINATION":97.2845,"RA_OF_ASC_NODE":310.5853,"ARG_OF_PERICENTER":70.7324,"MEAN_ANOMALY":289.4034,"EPHEMERIS_TYPE":0,"CLASSIFICATION_TYPE":"U","NORAD_CAT_ID":68618,"ELEMENT_SET_NO":999,"REV_AT_EPOCH":247,"BSTAR":0.00063322673,"MEAN_MOTION_DOT":0.00123138,"MEAN_MOTION_DDOT":0},{"OBJECT_NAME":"STARLINK-37226","OBJECT_ID":"2026-073T","EPOCH":"2026-04-23T06:00:02.000160","MEAN_MOTION":15.75594018,"ECCENTRICITY":0.00013242,"INCLINATION":97.2844,"RA_OF_ASC_NODE":311.2512,"ARG_OF_PERICENTER":84.6071,"MEAN_ANOMALY":254.5442,"EPHEMERIS_TYPE":0,"CLASSIFICATION_TYPE":"U","NORAD_CAT_ID":68619,"ELEMENT_SET_NO":999,"REV_AT_EPOCH":361,"BSTAR":-0.0052014344,"MEAN_MOTION_DOT":-0.00726021,"MEAN_MOTION_DDOT":0},{"OBJECT_NAME":"STARLINK-37211","OBJECT_ID":"2026-073U","EPOCH":"2026-04-21T22:07:28.900128","MEAN_MOTION":15.80842868,"ECCENTRICITY":0.0001327,"INCLINATION":97.2849,"RA_OF_ASC_NODE":309.8509,"ARG_OF_PERICENTER":82.8537,"MEAN_ANOMALY":277.2882,"EPHEMERIS_TYPE":0,"CLASSIFICATION_TYPE":"U","NORAD_CAT_ID":68620,"ELEMENT_SET_NO":999,"REV_AT_EPOCH":236,"BSTAR":0.0010112,"MEAN_MOTION_DOT":0.00198257,"MEAN_MOTION_DDOT":0},{"OBJECT_NAME":"STARLINK-37269","OBJECT_ID":"2026-073V","EPOCH":"2026-04-22T13:39:52.958880","MEAN_MOTION":15.75210043,"ECCENTRICITY":0.0001646,"INCLINATION":97.2848,"RA_OF_ASC_NODE":310.5008,"ARG_OF_PERICENTER":47.8696,"MEAN_ANOMALY":312.2709,"EPHEMERIS_TYPE":0,"CLASSIFICATION_TYPE":"U","NORAD_CAT_ID":68621,"ELEMENT_SET_NO":999,"REV_AT_EPOCH":246,"BSTAR":0.000298,"MEAN_MOTION_DOT":0.00044591,"MEAN_MOTION_DDOT":0},{"OBJECT_NAME":"STARLINK-37252","OBJECT_ID":"2026-073W","EPOCH":"2026-04-22T11:44:37.044096","MEAN_MOTION":15.80921547,"ECCENTRICITY":0.0001842,"INCLINATION":97.2841,"RA_OF_ASC_NODE":310.4565,"ARG_OF_PERICENTER":59.0568,"MEAN_ANOMALY":301.0881,"EPHEMERIS_TYPE":0,"CLASSIFICATION_TYPE":"U","NORAD_CAT_ID":68622,"ELEMENT_SET_NO":999,"REV_AT_EPOCH":245,"BSTAR":0.0012931,"MEAN_MOTION_DOT":0.00256191,"MEAN_MOTION_DDOT":0},{"OBJECT_NAME":"STARLINK-37284","OBJECT_ID":"2026-073X","EPOCH":"2026-04-22T14:46:55.474176","MEAN_MOTION":15.80859174,"ECCENTRICITY":4.717e-5,"INCLINATION":97.2842,"RA_OF_ASC_NODE":310.5911,"ARG_OF_PERICENTER":48.2915,"MEAN_ANOMALY":311.8393,"EPHEMERIS_TYPE":0,"CLASSIFICATION_TYPE":"U","NORAD_CAT_ID":68623,"ELEMENT_SET_NO":999,"REV_AT_EPOCH":247,"BSTAR":0.00063105404,"MEAN_MOTION_DOT":0.00122688,"MEAN_MOTION_DDOT":0},{"OBJECT_NAME":"STARLINK-37231","OBJECT_ID":"2026-073Y","EPOCH":"2026-04-22T13:36:50.055264","MEAN_MOTION":15.75198032,"ECCENTRICITY":0.0001499,"INCLINATION":97.2849,"RA_OF_ASC_NODE":310.5038,"ARG_OF_PERICENTER":91.4806,"MEAN_ANOMALY":268.6631,"EPHEMERIS_TYPE":0,"CLASSIFICATION_TYPE":"U","NORAD_CAT_ID":68624,"ELEMENT_SET_NO":999,"REV_AT_EPOCH":246,"BSTAR":0.0002745,"MEAN_MOTION_DOT":0.00041025,"MEAN_MOTION_DDOT":0},{"OBJECT_NAME":"STARLINK-37249","OBJECT_ID":"2026-073Z","EPOCH":"2026-04-21T23:33:15.489792","MEAN_MOTION":15.80768408,"ECCENTRICITY":7.1e-5,"INCLINATION":97.285,"RA_OF_ASC_NODE":309.923,"ARG_OF_PERICENTER":103.7568,"MEAN_ANOMALY":256.3779,"EPHEMERIS_TYPE":0,"CLASSIFICATION_TYPE":"U","NORAD_CAT_ID":68625,"ELEMENT_SET_NO":999,"REV_AT_EPOCH":237,"BSTAR":0.0010393,"MEAN_MOTION_DOT":0.00203192,"MEAN_MOTION_DDOT":0},{"OBJECT_NAME":"STARLINK-37285","OBJECT_ID":"2026-073AA","EPOCH":"2026-04-22T12:01:47.548128","MEAN_MOTION":15.75244929,"ECCENTRICITY":0.0001538,"INCLINATION":97.2848,"RA_OF_ASC_NODE":310.4398,"ARG_OF_PERICENTER":86.1586,"MEAN_ANOMALY":273.9855,"EPHEMERIS_TYPE":0,"CLASSIFICATION_TYPE":"U","NORAD_CAT_ID":68626,"ELEMENT_SET_NO":999,"REV_AT_EPOCH":245,"BSTAR":0.00072576,"MEAN_MOTION_DOT":0.00109786,"MEAN_MOTION_DDOT":0},{"OBJECT_NAME":"STP-S29A OBJECT A","OBJECT_ID":"2026-074A","EPOCH":"2026-04-22T08:35:10.629888","MEAN_MOTION":15.23308302,"ECCENTRICITY":0.00173603,"INCLINATION":60.0199,"RA_OF_ASC_NODE":32.3947,"ARG_OF_PERICENTER":322.322,"MEAN_ANOMALY":37.6643,"EPHEMERIS_TYPE":0,"CLASSIFICATION_TYPE":"U","NORAD_CAT_ID":68627,"ELEMENT_SET_NO":999,"REV_AT_EPOCH":227,"BSTAR":0.00026658866,"MEAN_MOTION_DOT":6.123e-5,"MEAN_MOTION_DDOT":0},{"OBJECT_NAME":"MISR-C-1","OBJECT_ID":"2026-074B","EPOCH":"2026-04-22T11:42:45.470592","MEAN_MOTION":15.2339656,"ECCENTRICITY":0.00158896,"INCLINATION":60.0249,"RA_OF_ASC_NODE":31.9015,"ARG_OF_PERICENTER":325.4968,"MEAN_ANOMALY":34.508,"EPHEMERIS_TYPE":0,"CLASSIFICATION_TYPE":"U","NORAD_CAT_ID":68628,"ELEMENT_SET_NO":999,"REV_AT_EPOCH":228,"BSTAR":0.00024217011,"MEAN_MOTION_DOT":5.547e-5,"MEAN_MOTION_DDOT":0},{"OBJECT_NAME":"RAWHIDE-1","OBJECT_ID":"2026-074C","EPOCH":"2026-04-22T11:36:35.460864","MEAN_MOTION":15.23866441,"ECCENTRICITY":0.00193312,"INCLINATION":60.0234,"RA_OF_ASC_NODE":31.8764,"ARG_OF_PERICENTER":330.3598,"MEAN_ANOMALY":29.6385,"EPHEMERIS_TYPE":0,"CLASSIFICATION_TYPE":"U","NORAD_CAT_ID":68629,"ELEMENT_SET_NO":999,"REV_AT_EPOCH":229,"BSTAR":0.00032875176,"MEAN_MOTION_DOT":7.758e-5,"MEAN_MOTION_DDOT":0}]
